#dP2021  9 22  0  0  0.00000000     289 d+D   IGb14 FIT AIUB
## 2176 259200.00000000   300.00000000 59479 0.0000000000000
+  117   G01G02G03G04G05G06G07G08G09G10G11G12G13G14G15G16G17
+        G18G19G20G21G22G23G24G25G26G27G28G29G30G31G32R01R02
+        R03R04R05R07R08R09R11R12R13R14R15R16R17R18R19R20R21
+        R22R24E01E02E03E04E05E07E08E09E11E12E13E14E15E18E19
+        E21E24E25E26E27E30E31E33E36C06C07C08C09C10C11C12C13
+        C14C16C19C20C21C22C23C24C25C26C27C28C29C30C32C33C34
+        C35C36C37C38C39C40C41C42C43C44C45C46J01J02J03  0  0
++         5  5  5  5  5  5  5  5  5  5  5  5  5  5  5  5  5
++         5  5  5  5  5  5  5  5  5  5  5  5  5  5  5  5  5
++         5  5  5  5  5  5  5  5  5  5  5  5  5  5  5  5  5
++         5  5  5  5  5  5  5  5  5  5  5  5  5  5  5  5  5
++         5  5  5  5  5  5  5  5  5  6 10  5  5  5  6  5  5
++         5  5  5  5  5  5  5  5  5  5  5  5  5  5  5  5  5
++         5  5  5  5  5  5  5  5  6  5  5  5  5  5  5  0  0
%c M  cc GPS ccc cccc cccc cccc cccc ccccc ccccc ccccc ccccc
%c cc cc ccc ccc cccc cccc cccc cccc ccccc ccccc ccccc ccccc
%f  1.2500000  1.025000000  0.00000000000  0.000000000000000
%f  0.0000000  0.000000000  0.00000000000  0.000000000000000
%i    0    0    0    0      0      0      0      0         0
%i    0    0    0    0      0      0      0      0         0
/* Center for Orbit Determination in Europe (CODE)                              
/* MGEX orbits and clocks for year-day 2021-2650                                
/* Middle day of a 3-day long-arc multi-GNSS solution                           
/* Systems considered: GPS/GLONASS/Galileo/BeiDou/QZSS                          
/* Product reference - DOI 10.7892/boris.75882.3                                
/* PCV:IGS14      OL/AL:FES2014b NONE     YN ORB:CoN CLK:CoN                    
*  2021  9 22  4 50  0.00000000
PG01   8595.123612 -19107.385804 -16390.772335    560.628665
PG02 -21789.566871  14618.884471  -3714.920783   -633.637671
PG03   -410.700395 -16177.837350 -21185.021824   -297.943933
PG04    913.420803 -26287.048520  -3414.080863   -204.237881
PG05 -13858.727074   9731.678645  20332.572674    -55.208315
PG06 -21522.522850   2684.025548 -15308.270534     79.223324
PG07  -7332.350937 -13827.962282  21802.639667    249.588605
PG08   7341.945216 -21234.358985  13901.890345    -37.369779
PG09  -8000.082427 -24138.262459   7555.054440   -361.281178
PG10  23943.031256  11816.070336   1077.625674   -208.324486
PG11 -23771.144638  10829.090920  -4787.010841     19.157315
PG12  -1565.581057  15900.392238 -21489.255950   -100.862029
PG13 -12854.840240  14711.460250  17779.035918    188.931172
PG14 -23429.958147 -12557.662924    595.402184     -3.728619
PG15  -5049.939106  22294.812134  12844.522244   -119.355077
PG16  18353.880020  -4128.522589  18684.286145   -394.673900
PG17 -12396.078732 -14683.250204 -17898.173208    508.259989
PG18   8453.970312  12419.007290  21890.870051    319.540516
PG19 -14586.621572  -5176.985802 -21874.801103     56.128569
PG20 -22520.916325   3608.076316  13359.413216    519.017221
PG21  15127.480610 -19695.341348  -7914.302582    143.956617
PG22   7608.195468 -13860.299329 -21154.024494   -507.314699
PG23  17464.672053  16306.902446  11653.281406     54.413605
PG24 -11312.112961  20734.372546 -11997.734695    239.785582
PG25   9698.239030  17914.662580 -17447.275031    212.289722
PG26  24947.431156   3082.817026   8945.936804    136.871911
PG27  12426.721314 -12036.031931  19860.914276   -196.251680
PG28 -23910.164788  -9569.269333  -5503.626671    496.583263
PG29   3873.535887  25712.583498   5191.505065   -415.348012
PG30 -17536.352955  -5370.182515  19359.357609   -475.275916
PG31  22874.371826  -3873.174632 -13441.073623   -141.046510
PG32  14717.581406  10551.378221 -19375.308801     -2.740454
PR01  -7808.187505   8157.022830  22867.058997     85.647007
PR02   6511.353173  21459.560808  12252.037913    494.106797
PR03  15264.136137  19864.370583  -4923.096906     43.375201
PR04  15139.673368   7264.275102 -19184.277040    105.896080
PR05   6736.542810  -9339.337629 -22753.165881     79.367163
PR07 -15428.004528 -19470.127678   5714.848153    -41.081539
PR08 -15221.467666  -7053.360065  19254.183193    -61.079696
PR09    610.585666 -11334.532721  22862.737308     14.452728
PR11 -25424.942071    395.161137   2131.737112     49.013136
PR12 -18738.118067   8108.022433 -15246.576236    263.961668
PR13  -1699.614314  11080.169848 -22920.692526    -61.010195
PR14  17402.521887   7466.971508 -17061.614283     69.050493
PR15  25463.464136   -377.215785  -1408.281433    101.310246
PR16  17685.589066  -9050.914532  16062.649252    -21.859385
PR17   4802.449623  12129.089362  21916.304339    460.536895
PR18  13209.284172  -4251.677430  21405.670416     91.252862
PR19  15368.997337 -17518.770584  10386.266144   -160.302082
PR20   7871.365533 -22233.821949  -9669.921230    -56.313281
PR21  -5464.727328 -11037.978196 -22345.547769   -241.126829
PR22 -13564.769569   5287.889685 -20984.551689   -134.619745
PR24  -6832.682531  22324.349309  10262.123853     59.614976
PE01  17789.097167  16713.262967 -16736.274153   -479.754338
PE02 -17898.721914 -16685.339109  16654.127831    248.468354
PE03 -12346.102274 -25794.573193   7663.577364   -477.200986
PE04  18120.999666   9207.071432 -21517.369381   -861.881442
PE05    782.217636 -27501.791618 -10924.912947   -247.485381
PE07 -13300.316621  13167.067460  22930.900936   -588.120650
PE08 -18046.673305  -8762.316762  21765.618004   5933.743950
PE09  13004.814119 -13416.158134 -22962.915197   5523.470380
PE11  22838.859597 -18087.664704   5214.626303   5389.125560
PE12  20668.257343  -1197.618462  21149.411250   4997.670620
PE13 -22906.520899  17845.368588  -5729.307776    421.768000
PE14  13153.410713  11580.336691  15525.010831  -1579.161720
PE15 -20609.737665   1292.660472 -21202.158004    790.970664
PE18 -19044.528632 -13245.476834 -22852.715391  -1733.510040
PE19  10977.493212  26938.298216  -5483.430635    383.660456
PE21  -2398.936451  16508.010174 -24443.637548   -689.320857
PE24  22954.855335  -6055.481522  17689.537978  -1130.899750
PE25   2662.486180 -16456.197036  24473.620120   -547.481375
PE26 -10927.792283  23777.584523  13820.059943   1315.789620
PE27 -22172.812905   6797.550339 -18378.164042   -125.781345
PE30 -28569.126461  -7710.174071   -430.848242   2600.288470
PE31  28763.069071   6813.378122   1585.850382   -485.881053
PE33   6187.117861  15967.581663  24143.778215   -464.650941
PE36  11721.511883 -23841.173295 -13057.826213   -265.746710
PC06 -11853.028707  40543.649275   1328.098015    226.906574
PC07  -4627.460801  28592.650618 -30593.645277   -130.119794
PC08 -16731.223844  23600.323253  30603.695221   -937.524423
PC09  -6992.208263  41006.281596  -7902.925095   -125.331146
PC10   3361.802919  31444.174289 -27419.764364      1.612591
PC11   8817.009798 -26504.128388   -235.194310    588.822674
PC12  16332.052044 -15958.219231  16098.566671    753.115650
PC13  -7635.035799  24686.776888  33339.327202    417.252208
PC14    818.553837 -19466.112536 -19984.085394    630.798999
PC16 -13453.846387  39848.220022   4486.995828   -797.825189
PC19   8282.285058  22813.917212  13774.734168    958.838393
PC20  -8179.947188  14129.730496  22633.922917   -799.896918
PC21  20646.311503   3526.979004 -18422.342733   -932.240158
PC22  20508.422061  18590.544499  -3439.934412   -953.037028
PC23 -19192.917068  -9075.663780  18123.177758   -963.625392
PC24  20147.522531 -14129.405135  13184.878373   -967.202261
PC25   -587.838645 -16452.945609  22532.750484   -851.293828
PC26  27378.897220  -4867.108324  -2561.249939    846.583611
PC27 -17299.145930   6237.274145 -21011.621407    601.180881
PC28 -10884.858584 -14229.709322 -21396.692388    -23.692294
PC29   -887.527899  26326.892801   9197.290633    450.374948
PC30 -12956.810274  23093.152017  -8835.818493    481.282354
PC32 -20719.767639  -3430.457463  18386.259211   -949.949321
PC33  -8345.333435 -22775.774411 -13813.106305   -968.376353
PC34  12615.639779 -23542.506372   8047.368036   -576.658479
PC35  11205.909249  14281.356989  21195.730687    -80.984189
PC36   -251.868604  16511.025315 -22463.588585   -763.690768
PC37 -27447.285850   3541.660093   3526.779361   -867.000288
PC38 -23437.845839  24878.807971  24563.902188    177.074617
PC39 -14821.872164  37975.853812  11065.905465     33.273203
PC40  -7262.352038  23508.376089 -34203.124765    201.629860
PC41 -20472.523511 -18706.688748   3129.169004   -933.647709
PC42   8901.277930 -13525.699338 -22693.841541   -959.859713
PC43   1359.659897 -26486.489426  -8663.991105   -925.618912
PC44  17163.441281  -6542.098477  20992.559792    401.679320
PC45  19362.319660   8818.739811 -18057.206692    554.059893
PC46 -19155.095836  14510.851116 -14143.431078     73.992495
PJ01 -24988.669235  23333.839976  29592.512620    126.973130
PJ02 -30761.579144  15025.012613 -20055.510004     -2.681832
PJ03 -24049.162398  31795.202300  -9053.753050     -2.416581
EOF
